#Pass ID: 20250117_174907_FENGYUN 3F
#Satellite: FENGYUN 3F
#Configuration: FENGYUN 3F
#Start time: 2025-01-17 17:49:12.484270

#LorettStation: 1.0.0 05.05.2024
#Station: Regia
#Location: 37.494653 lon 55.929028 lat
#TLE: 1 57490U 23111A   25017.45170517  .00000184  00000+0  10738-3 0  9992
#TLE: 2 57490  98.7459  90.3623 0001267 138.3025 221.8249 14.19977378 75679

#Time	Az	El	Level	SNR
#Closed at: 2025-01-17 17:49:07.485337